#dP2019 10 31  0  0  0.00000000      96 __u+U ITR00 FIT  IAC
## 2077 345600.00000000   900.00000000 58787 0.0000000000000
+  115   C01C02C03C04C05C06C07C08C09C10C11C12C13C14C16C19C20
+        C21C22C23C24C25C26C27C28C29C30C32C33C34C35C36C37E01
+        E02E03E04E05E07E08E09E11E12E13E14E15E18E19E21E24E26
+        E27E30E31E33E36G01G02G03G04G05G06G07G08G09G10G11G12
+        G13G14G15G16G17G18G19G20G21G22G23G24G25G26G27G28G29
+        G30G31G32J01J02J03J07R01R02R03R05R06R07R08R09R11R12
+        R13R14R15R16R17R18R19R20R21R22R23R24R26  0  0  0  0
++        13 13 13 13 13  8  8  8  8  8  7  7  8  7  8  8  8
++         8  8  7  8  7  8  8  7  8  8  8  8  8  8  8  8  4
++         4  4  4  4  4  4  4  0  4  4  4  4  4  4  4  4  4
++         4  4  4  4  4  4  3  3  4  4  3  3  3  3  3  3  3
++         4  3  3  3  3  4  3  3  3  3  3  3  3  3  3  3  3
++         3  3  3  8  8  8 14  6  6  5  5  8  5  5  5  5  6
++         6  5  5  6  5  5  6  6  5  5  5  6  8  0  0  0  0
%c M  cc GPS ccc cccc cccc cccc cccc ccccc ccccc ccccc ccccc
%c cc cc ccc ccc cccc cccc cccc cccc ccccc ccccc ccccc ccccc
%f  0.0000000  0.000000000  0.00000000000  0.000000000000000
%f  0.0000000  0.000000000  0.00000000000  0.000000000000000
%i    0    0    0    0      0      0      0      0         0
%i    0    0    0    0      0      0      0      0         0
/* INFORMATION & ANALYSIS CENTER (IAC)            RAPID DATA
/* S/V CLOCKS ARE ALIGNED TO GNSS TIME                      
/* G:C1WC2W R:C1PC2P E:C1XC5X C:C2IC6I J:C1CC2S             
/* PCV:IGS14_2076 OL/AL:FES2004  NONE     YN ORB:CoN CLK:CoN
*  2019 10 31 14 45  0.00000000
PC01 -32291.982369  27123.015534    553.326742     81.865915
PC02   4359.247831  41918.164705  -1004.686275    768.494196
PC03 -14753.820017  39474.381080   -509.580081    439.467477
PC04 -39596.138256  14536.817654    177.573053   -409.047360
PC05  21925.019745  35972.808500  -1160.268720    -17.189144
PC06 -15709.613257  37991.945349  -8019.456084    337.938133
PC07 -10119.960038  25040.200905  32634.518577   -231.668572
PC08 -25446.824098  23136.743438 -24542.899343    -24.921826
PC09  -5968.152249  40729.704603   8458.860267     81.293509
PC10   5073.987991  32069.333753  27289.125446   -321.695324
PC11 -16125.595753  22816.154597    559.047066     24.939137
PC12 -17453.695249    151.589841  21864.719716    303.259969
PC13  -9386.147799  25337.323011 -32391.019197     81.892444
PC14  -6725.439998  18076.399760 -20165.553204    102.570429
PC16 -13299.902154  39558.357159  -5209.586067   -905.040794
PC19   -648.099170 -23782.691915  14589.657985    232.802898
PC20  12782.626476  -9881.203242  22758.737830   -235.246983
PC21 -18984.126142 -10312.178382 -17644.944722    215.025059
PC22 -13890.226170 -24080.813275  -2258.720715   -298.109491
PC23  15182.897194  14294.095936  18557.602486   -892.479725
PC24 -23532.847806   7504.111046  13013.001349 999999.999999
PC25  -5199.068398  15665.309481  22505.176702   -398.426450
PC26 -27467.954145  -3710.393825  -3383.652709    443.285235
PC27  17791.890869    443.611767 -21509.349316    216.749080
PC28   5239.470266  17792.626799 -20850.005616    207.946809
PC29   9333.063048 -25033.751400   8048.350058    139.678547
PC30  19281.866229 -17675.056869  -9740.903269    216.845688
PC32  19080.588682  10184.464406  17642.177425   -880.721912
PC33    712.209146  23775.757103 -14607.911720   -520.489242
PC34 -19275.618573  17820.773452   9442.254704   -197.139481
PC35  -5800.788996 -17714.807894  20778.437148   -503.186029
PC36   5749.630840 -15486.958069 -22459.720399   -925.109965
PC37  27217.072869   4713.913761   3952.543038   -684.283893
PE01 -15349.724147 -19768.515216 -15795.062649   -722.095972
PE02  15397.504861  19766.740818  15760.812565     88.716648
PE03   7262.287787  27418.017340   8488.863521   -227.895982
PE04 -16104.738347 -11691.896313 -21912.417685   -396.430649
PE05  -5923.836199  27212.373407 -10039.145303   -435.302030
PE07  15570.883312 -11097.532895  22592.230590   -292.409589
PE08  16093.260980  11420.224839  22062.644540   6269.788703
PE09 -15333.730497  11296.282008 -22665.044241   6267.757186
PE11      0.000000      0.000000      0.000000 999999.999999
PE12 -21206.610148  -2359.279100  20515.813322   6122.843865
PE13  25917.414485 -13553.943710  -4526.127822    394.835926
PE14 -14383.506508  -3631.780566  18018.100671   -777.134315
PE15  21367.593630   1942.977930 -20380.310039    889.486923
PE18  20000.759755   5500.214210 -25166.248646   -871.791306
PE19  -5965.253979 -28229.810994  -6613.559179     -3.138095
PE21   5110.721298 -15698.264470 -24561.971941   -563.321466
PE24 -22650.721134   2373.896865  18914.745737   5791.448253
PE26  15211.114333 -21107.997383  14105.619528   3930.775881
PE27  22664.211241  -2396.832632 -18875.236404    355.471320
PE30  26787.005878  12400.248177  -2142.109556   4422.588494
PE31 -26861.527732 -12244.619158   2161.631065   -470.189441
PE33  -4290.531895 -16326.527864  24320.163927   -471.641943
PE36 -15285.610140  21129.987540 -14004.078934    642.734526
PG01   2066.793743  14854.573647 -22108.097660   -181.559552
PG02  18803.725184 -15026.089867  11704.493356   -337.278517
PG03  11216.621172  21718.237281 -10558.049478    -29.847160
PG04  13552.813389   7412.395544  21610.145351     -4.428857
PG05   6839.781227 -14326.838221  21129.869841     -2.910580
PG06  25868.203166  -5907.922375  -1422.800049   -108.705177
PG07  18682.732145   8135.406044  17565.462142   -138.831870
PG08  -5166.894543  25846.642453  -2063.067958    -11.801157
PG09   9689.714074  16019.222421  18783.963039    -71.282137
PG10 -21361.147772  -7758.682264 -13864.238884   -116.191705
PG11    265.685213  19211.387441 -18965.767907   -461.862808
PG12  -5797.546184 -21644.350162 -14599.985115    188.371782
PG13  13037.968058 -22500.612709   5092.643309    -35.636052
PG14 -16465.000222  12903.696056 -15932.526421    -53.105896
PG15   1971.187318 -26114.210410  -3179.676524   -275.977334
PG16  -9757.212823  11125.247979  21837.639631    -88.592040
PG17  15487.501489  -2338.439177 -21014.920973    154.361415
PG18  -6993.582310  16882.513167 -19747.660569     96.940777
PG19  16863.964630  -9456.235847 -18515.926923   -246.170851
PG20 -22556.773361 -13604.983953  -4224.830754    527.349070
PG21 -21142.425609  -4967.488923  15941.970250    -93.517892
PG22   5235.947480  20365.038237 -16065.528515   -768.301092
PG23   3254.999385  23373.620655  12139.000801   -158.275198
PG24   -192.863868 -16239.093389 -21140.320464     -4.262149
PG25 -17526.311103 -20031.504957  -2352.234104    -16.504545
PG26 -17083.799172   3585.550506  20055.574914     73.882864
PG27 -12255.933045  21413.282878   9299.181640   -105.151795
PG28  19958.318875   9125.479937 -14270.716151    756.978020
PG29  -6819.031462 -17768.590994  18484.180529     56.597346
PG30  25246.137314    765.434968   8564.128730    -73.601512
PG31 -25952.321518   6688.025929    812.390230     -0.049543
PG32 -16009.782325   2932.227082 -20904.470491    109.803118
PJ01 -19802.499132  23454.943661 -24337.277915   -335.129636
PJ02 -27852.492383  22050.065531  27550.997843     -6.823772
PJ03 -31278.500051  26266.548249  15519.344802     -5.209936
PJ07 -25408.692413  33660.423925     -5.681481     -0.478154
PR01  10055.175596  22561.270540   6389.814211     51.988994
PR02  12252.845607   5759.965281  21636.984539    395.515433
PR03   6776.688270 -12844.469100  21015.657532      4.038693
PR05 -10464.184294 -21489.432360  -8939.253977     38.530894
PR06 -12432.237892  -4565.329263 -21823.012180    164.817203
PR07  -6527.559908  13271.357355 -20743.822781    -28.773266
PR08   2595.417891  23915.316534  -8421.126017     14.731682
PR09 -24463.476183  -2857.393619   6521.307276     98.628118
PR11   1980.780751  11749.489392  22580.462940     21.499040
PR12  18234.614533  11296.173931  13821.673561     75.097848
PR13  24889.316390   4139.165062  -3773.709323    -30.362222
PR14  16676.269529  -4974.153342 -18637.323970     44.568775
PR15  -1004.294602 -11388.788275 -22775.245438    104.570104
PR16 -18737.878742 -11010.323533 -13468.143343      1.341979
PR17  18764.416710 -16886.032108  -3477.893682    272.600718
PR18  10547.448851 -19180.552040  13150.835406     12.847914
PR19  -2912.429840 -11303.838195  22679.538776    -61.619611
PR20 -16617.915446   4394.696591  18839.843999   -394.882125
PR21 -18638.261392  17232.589999   2705.885893    -82.257010
PR22  -8344.515049  18327.501951 -15579.142538   -182.643474
PR23   7999.330457   6771.721639 -23261.524352    263.812164
PR24  17453.595083  -6456.658611 -17471.435125   -186.282659
PR26 -14794.249158   1717.988830  20730.220946      4.193159
EOF
